start=new Date('2023-05-11T00:00:00.000Z').valueOf();
sats=[{"BSTAR":"0.00166360000000","INCLINATION":"53.0541","REV_AT_EPOCH":"18061","TLE_LINE2":"2 45045  53.0541 248.4133 0001335 107.9606 252.1529 15.06371714180611","MEAN_MOTION":"15.06371714","PERIOD":"95.594","SITE":"AFETR","DECAY_DATE":null,"MEAN_ANOMALY":"252.1529","MEAN_ELEMENT_THEORY":"SGP4","LAUNCH_DATE":"2020-01-29","EPHEMERIS_TYPE":"0","ELEMENT_SET_NO":"999","EPOCH":"2023-05-10T16:32:36.149856","ECCENTRICITY":"0.00013350","SEMIMAJOR_AXIS":"6925.435","OBJECT_NAME":"STARLINK-1120","ARG_OF_PERICENTER":"107.9606","PERIAPSIS":"546.376","COUNTRY_CODE":"US","OBJECT_TYPE":"PAYLOAD","CENTER_NAME":"EARTH","TLE_LINE1":"1 45045U 20006B   23130.68930729  .00024566  00000-0  16636-2 0  9996","APOAPSIS":"548.225","FILE":"3904830","RA_OF_ASC_NODE":"248.4133","CLASSIFICATION_TYPE":"U","TIME_SYSTEM":"UTC","NORAD_CAT_ID":"45045","MEAN_MOTION_DOT":"0.00024566","OBJECT_ID":"2020-006B","REF_FRAME":"TEME","GP_ID":"231563448","MEAN_MOTION_DDOT":"0.0000000000000","RCS_SIZE":"LARGE"},{"MEAN_ELEMENT_THEORY":"SGP4","DECAY_DATE":null,"MEAN_ANOMALY":"264.3526","SITE":"AFETR","PERIOD":"95.594","MEAN_MOTION":"15.06377206","TLE_LINE2":"2 45047  53.0534 248.4065 0000953  95.7572 264.3526 15.06377206180614","REV_AT_EPOCH":"18061","INCLINATION":"53.0534","BSTAR":"0.00141440000000","PERIAPSIS":"546.623","ARG_OF_PERICENTER":"95.7572","SEMIMAJOR_AXIS":"6925.418","ECCENTRICITY":"0.00009530","OBJECT_NAME":"STARLINK-1131","EPOCH":"2023-05-10T16:39:15.720480","ELEMENT_SET_NO":"999","EPHEMERIS_TYPE":"0","LAUNCH_DATE":"2020-01-29","FILE":"3904830","APOAPSIS":"547.943","TLE_LINE1":"1 45047U 20006D   23130.69393195  .00020836  00000-0  14144-2 0  9997","OBJECT_TYPE":"PAYLOAD","CENTER_NAME":"EARTH","COUNTRY_CODE":"US","RCS_SIZE":"LARGE","MEAN_MOTION_DDOT":"0.0000000000000","GP_ID":"231564199","REF_FRAME":"TEME","OBJECT_ID":"2020-006D","MEAN_MOTION_DOT":"0.00020836","NORAD_CAT_ID":"45047","TIME_SYSTEM":"UTC","CLASSIFICATION_TYPE":"U","RA_OF_ASC_NODE":"248.4065"},{"RCS_SIZE":"LARGE","GP_ID":"231564449","MEAN_MOTION_DDOT":"0.0000000000000","OBJECT_ID":"2020-006E","REF_FRAME":"TEME","NORAD_CAT_ID":"45048","MEAN_MOTION_DOT":"0.00030231","TIME_SYSTEM":"UTC","RA_OF_ASC_NODE":"248.6719","CLASSIFICATION_TYPE":"U","FILE":"3904830","TLE_LINE1":"1 45048U 20006E   23130.63496253  .00030231  00000-0  20412-2 0  9996","APOAPSIS":"548.143","COUNTRY_CODE":"US","CENTER_NAME":"EARTH","OBJECT_TYPE":"PAYLOAD","PERIAPSIS":"546.446","ARG_OF_PERICENTER":"114.0261","SEMIMAJOR_AXIS":"6925.429","OBJECT_NAME":"STARLINK-1134","ECCENTRICITY":"0.00012250","EPOCH":"2023-05-10T15:14:20.762592","ELEMENT_SET_NO":"999","EPHEMERIS_TYPE":"0","LAUNCH_DATE":"2020-01-29","DECAY_DATE":null,"MEAN_ANOMALY":"246.0856","MEAN_ELEMENT_THEORY":"SGP4","SITE":"AFETR","MEAN_MOTION":"15.06373603","PERIOD":"95.594","REV_AT_EPOCH":"18060","TLE_LINE2":"2 45048  53.0535 248.6719 0001225 114.0261 246.0856 15.06373603180606","INCLINATION":"53.0535","BSTAR":"0.00204120000000"},{"NORAD_CAT_ID":"45049","MEAN_MOTION_DOT":"0.00004768","TIME_SYSTEM":"UTC","RA_OF_ASC_NODE":"227.7136","CLASSIFICATION_TYPE":"U","RCS_SIZE":"LARGE","GP_ID":"231563199","MEAN_MOTION_DDOT":"0.0000000000000","OBJECT_ID":"2020-006F","REF_FRAME":"TEME","FILE":"3904830","TLE_LINE1":"1 45049U 20006F   23130.61987509  .00004768  00000-0  21925-3 0  9991","APOAPSIS":"501.658","COUNTRY_CODE":"US","OBJECT_TYPE":"PAYLOAD","CENTER_NAME":"EARTH","EPOCH":"2023-05-10T14:52:37.207776","ELEMENT_SET_NO":"999","EPHEMERIS_TYPE":"0","LAUNCH_DATE":"2020-01-29","PERIAPSIS":"496.965","ARG_OF_PERICENTER":"157.7515","SEMIMAJOR_AXIS":"6877.446","OBJECT_NAME":"STARLINK-1135","ECCENTRICITY":"0.00034120","MEAN_MOTION":"15.22165740","PERIOD":"94.602","REV_AT_EPOCH":"18090","TLE_LINE2":"2 45049  53.0694 227.7136 0003412 157.7515 202.3629 15.22165740180905","INCLINATION":"53.0694","BSTAR":"0.00021925000000","DECAY_DATE":null,"MEAN_ANOMALY":"202.3629","MEAN_ELEMENT_THEORY":"SGP4","SITE":"AFETR"},{"ELEMENT_SET_NO":"999","EPOCH":"2023-05-10T20:16:52.906656","LAUNCH_DATE":"2020-01-29","EPHEMERIS_TYPE":"0","PERIAPSIS":"546.325","OBJECT_NAME":"STARLINK-1140","SEMIMAJOR_AXIS":"6925.306","ECCENTRICITY":"0.00012220","ARG_OF_PERICENTER":"97.0223","TLE_LINE2":"2 45050  53.0529 247.7214 0001222  97.0223 263.0905 15.06413833180634","REV_AT_EPOCH":"18063","PERIOD":"95.591","MEAN_MOTION":"15.06413833","BSTAR":"0.00040307000000","INCLINATION":"53.0529","SITE":"AFETR","MEAN_ELEMENT_THEORY":"SGP4","DECAY_DATE":null,"MEAN_ANOMALY":"263.0905","TIME_SYSTEM":"UTC","MEAN_MOTION_DOT":"0.00005730","NORAD_CAT_ID":"45050","CLASSIFICATION_TYPE":"U","RA_OF_ASC_NODE":"247.7214","RCS_SIZE":"LARGE","REF_FRAME":"TEME","OBJECT_ID":"2020-006G","MEAN_MOTION_DDOT":"0.0000000000000","GP_ID":"231562948","FILE":"3904830","OBJECT_TYPE":"PAYLOAD","CENTER_NAME":"EARTH","COUNTRY_CODE":"US","APOAPSIS":"548.017","TLE_LINE1":"1 45050U 20006G   23130.84505679  .00005730  00000-0  40307-3 0  9997"},{"BSTAR":"0.00511940000000","INCLINATION":"53.0461","TLE_LINE2":"2 45051  53.0461 202.2990 0016684 353.3932   6.6860 15.66126883181263","REV_AT_EPOCH":"18126","PERIOD":"91.947","MEAN_MOTION":"15.66126883","SITE":"AFETR","MEAN_ELEMENT_THEORY":"SGP4","DECAY_DATE":null,"MEAN_ANOMALY":"6.6860","LAUNCH_DATE":"2020-01-29","EPHEMERIS_TYPE":"0","ELEMENT_SET_NO":"999","EPOCH":"2023-05-10T15:44:52.827072","SEMIMAJOR_AXIS":"6748.137","ECCENTRICITY":"0.00166840","OBJECT_NAME":"STARLINK-1141","ARG_OF_PERICENTER":"353.3932","PERIAPSIS":"358.743","CENTER_NAME":"EARTH","OBJECT_TYPE":"PAYLOAD","COUNTRY_CODE":"US","APOAPSIS":"381.260","TLE_LINE1":"1 45051U 20006H   23130.65616698  .00577463  00000-0  51194-2 0  9993","FILE":"3904830","CLASSIFICATION_TYPE":"U","RA_OF_ASC_NODE":"202.2990","TIME_SYSTEM":"UTC","MEAN_MOTION_DOT":"0.00577463","NORAD_CAT_ID":"45051","REF_FRAME":"TEME","OBJECT_ID":"2020-006H","MEAN_MOTION_DDOT":"0.0000000000000","GP_ID":"231563700","RCS_SIZE":"LARGE"},{"RA_OF_ASC_NODE":"248.8869","CLASSIFICATION_TYPE":"U","TIME_SYSTEM":"UTC","NORAD_CAT_ID":"45052","MEAN_MOTION_DOT":"0.00022117","OBJECT_ID":"2020-006J","REF_FRAME":"TEME","GP_ID":"231563950","MEAN_MOTION_DDOT":"0.0000000000000","RCS_SIZE":"LARGE","COUNTRY_CODE":"US","OBJECT_TYPE":"PAYLOAD","CENTER_NAME":"EARTH","TLE_LINE1":"1 45052U 20006J   23130.58704839  .00022117  00000-0  15000-2 0  9998","APOAPSIS":"548.060","FILE":"3904830","LAUNCH_DATE":"2020-01-29","EPHEMERIS_TYPE":"0","ELEMENT_SET_NO":"999","EPOCH":"2023-05-10T14:05:20.980896","SEMIMAJOR_AXIS":"6925.421","ECCENTRICITY":"0.00011180","OBJECT_NAME":"STARLINK-1148","ARG_OF_PERICENTER":"101.8278","PERIAPSIS":"546.512","BSTAR":"0.00150000000000","INCLINATION":"53.0523","REV_AT_EPOCH":"18059","TLE_LINE2":"2 45052  53.0523 248.8869 0001118 101.8278 258.2836 15.06376405180593","MEAN_MOTION":"15.06376405","PERIOD":"95.594","SITE":"AFETR","MEAN_ANOMALY":"258.2836","DECAY_DATE":null,"MEAN_ELEMENT_THEORY":"SGP4"},{"SITE":"AFETR","MEAN_ELEMENT_THEORY":"SGP4","DECAY_DATE":null,"MEAN_ANOMALY":"170.0910","BSTAR":"0.00044232000000","INCLINATION":"52.9882","TLE_LINE2":"2 45053  52.9882 206.3168 0003709 190.0016 170.0910 15.31618227181133","REV_AT_EPOCH":"18113","PERIOD":"94.018","MEAN_MOTION":"15.31618227","SEMIMAJOR_AXIS":"6849.121","OBJECT_NAME":"STARLINK-1155","ECCENTRICITY":"0.00037090","ARG_OF_PERICENTER":"190.0016","PERIAPSIS":"468.445","LAUNCH_DATE":"2020-01-29","EPHEMERIS_TYPE":"0","ELEMENT_SET_NO":"999","EPOCH":"2023-05-10T12:25:02.332704","CENTER_NAME":"EARTH","OBJECT_TYPE":"PAYLOAD","COUNTRY_CODE":"US","APOAPSIS":"473.526","TLE_LINE1":"1 45053U 20006K   23130.51738811  .00013353  00000-0  44232-3 0  9991","FILE":"3904555","REF_FRAME":"TEME","OBJECT_ID":"2020-006K","MEAN_MOTION_DDOT":"0.0000000000000","GP_ID":"231530555","RCS_SIZE":"LARGE","CLASSIFICATION_TYPE":"U","RA_OF_ASC_NODE":"206.3168","TIME_SYSTEM":"UTC","MEAN_MOTION_DOT":"0.00013353","NORAD_CAT_ID":"45053"},{"SITE":"AFETR","MEAN_ANOMALY":"256.8504","DECAY_DATE":null,"MEAN_ELEMENT_THEORY":"SGP4","REV_AT_EPOCH":"18060","TLE_LINE2":"2 45054  53.0527 248.6005 0001109 103.2609 256.8504 15.06375571180604","MEAN_MOTION":"15.06375571","PERIOD":"95.594","BSTAR":"0.00203460000000","INCLINATION":"53.0527","PERIAPSIS":"546.520","SEMIMAJOR_AXIS":"6925.423","OBJECT_NAME":"STARLINK-1156","ECCENTRICITY":"0.00011090","ARG_OF_PERICENTER":"103.2609","ELEMENT_SET_NO":"999","EPOCH":"2023-05-10T15:35:35.032992","LAUNCH_DATE":"2020-01-29","EPHEMERIS_TYPE":"0","FILE":"3904830","COUNTRY_CODE":"US","OBJECT_TYPE":"PAYLOAD","CENTER_NAME":"EARTH","TLE_LINE1":"1 45054U 20006L   23130.64971103  .00030134  00000-0  20346-2 0  9994","APOAPSIS":"548.056","RCS_SIZE":"LARGE","OBJECT_ID":"2020-006L","REF_FRAME":"TEME","GP_ID":"231563449","MEAN_MOTION_DDOT":"0.0000000000000","TIME_SYSTEM":"UTC","NORAD_CAT_ID":"45054","MEAN_MOTION_DOT":"0.00030134","RA_OF_ASC_NODE":"248.6005","CLASSIFICATION_TYPE":"U"},{"EPHEMERIS_TYPE":"0","LAUNCH_DATE":"2020-01-29","EPOCH":"2023-05-10T14:21:17.013312","ELEMENT_SET_NO":"999","ARG_OF_PERICENTER":"99.4335","OBJECT_NAME":"STARLINK-1159","SEMIMAJOR_AXIS":"6925.416","ECCENTRICITY":"0.00011580","PERIAPSIS":"546.479","INCLINATION":"53.0533","BSTAR":"0.00215240000000","MEAN_MOTION":"15.06377873","PERIOD":"95.594","REV_AT_EPOCH":"18060","TLE_LINE2":"2 45057  53.0533 248.8357 0001158  99.4335 260.6785 15.06377873180603","DECAY_DATE":null,"MEAN_ANOMALY":"260.6785","MEAN_ELEMENT_THEORY":"SGP4","SITE":"AFETR","RA_OF_ASC_NODE":"248.8357","CLASSIFICATION_TYPE":"U","NORAD_CAT_ID":"45057","MEAN_MOTION_DOT":"0.00031905","TIME_SYSTEM":"UTC","GP_ID":"231564200","MEAN_MOTION_DDOT":"0.0000000000000","OBJECT_ID":"2020-006P","REF_FRAME":"TEME","RCS_SIZE":"LARGE","TLE_LINE1":"1 45057U 20006P   23130.59811358  .00031905  00000-0  21524-2 0  9992","APOAPSIS":"548.083","COUNTRY_CODE":"US","OBJECT_TYPE":"PAYLOAD","CENTER_NAME":"EARTH","FILE":"3904830"}];
